$$SOE
2461295.500000000, A.D. 2026-Sep-12 00:00:00.0000, -4.237889098718045E+08, 3.559904936223643E+08, 1.933974631391826E+07,
2461302.500000000, A.D. 2026-Sep-19 00:00:00.0000, -4.290783881586481E+08, 3.493891371501515E+08, 1.950667389545444E+07,
2461309.500000000, A.D. 2026-Sep-26 00:00:00.0000, -4.342453170831456E+08, 3.426884111261020E+08, 1.966799765263431E+07,
2461316.500000000, A.D. 2026-Oct-03 00:00:00.0000, -4.392881136562963E+08, 3.358901386780902E+08, 1.982366739116997E+07,
2461323.500000000, A.D. 2026-Oct-10 00:00:00.0000, -4.442052080070021E+08, 3.289961587987888E+08, 1.997363355356807E+07,
2461330.500000000, A.D. 2026-Oct-17 00:00:00.0000, -4.489950432332590E+08, 3.220083268388860E+08, 2.011784721754327E+07,
2461337.500000000, A.D. 2026-Oct-24 00:00:00.0000, -4.536560752818202E+08, 3.149285149197350E+08, 2.025626008770397E+07,
2461344.500000000, A.D. 2026-Oct-31 00:00:00.0000, -4.581867727579564E+08, 3.077586121986725E+08, 2.038882446614689E+07,
2461351.500000000, A.D. 2026-Nov-07 00:00:00.0000, -4.625856163266480E+08, 3.005005250609555E+08, 2.051549317709973E+07,
2461358.500000000, A.D. 2026-Nov-14 00:00:00.0000, -4.668510975048212E+08, 2.931561781254719E+08, 2.063621949993229E+07,
2461365.500000000, A.D. 2026-Nov-21 00:00:00.0000, -4.709817186574335E+08, 2.857275167459759E+08, 2.075095733267061E+07,
2461372.500000000, A.D. 2026-Nov-28 00:00:00.0000, -4.749759951967854E+08, 2.782165080004351E+08, 2.085966143199728E+07,
2461379.500000000, A.D. 2026-Dec-05 00:00:00.0000, -4.788324563654556E+08, 2.706251395125979E+08, 2.096228734446082E+07,
2461386.500000000, A.D. 2026-Dec-12 00:00:00.0000, -4.825496444378434E+08, 2.629554192159529E+08, 2.105879126834725E+07,
2461393.500000000, A.D. 2026-Dec-19 00:00:00.0000, -4.861261142290213E+08, 2.552093760662608E+08, 2.114913002009664E+07,
2461400.500000000, A.D. 2026-Dec-26 00:00:00.0000, -4.895604330546149E+08, 2.473890608352871E+08, 2.123326104761341E+07,
2461407.500000000, A.D. 2027-Jan-02 00:00:00.0000, -4.928511808665468E+08, 2.394965467952854E+08, 2.131114244976766E+07,
2461414.500000000, A.D. 2027-Jan-09 00:00:00.0000, -4.959969504483005E+08, 2.315339303143594E+08, 2.138273299315687E+07,
2461421.500000000, A.D. 2027-Jan-16 00:00:00.0000, -4.989963476353302E+08, 2.235033313710279E+08, 2.144799212370045E+07,
2461428.500000000, A.D. 2027-Jan-23 00:00:00.0000, -5.018479915161946E+08, 2.154068939475185E+08, 2.150687996565765E+07,
2461435.500000000, A.D. 2027-Jan-30 00:00:00.0000, -5.045505144289990E+08, 2.072467862530634E+08, 2.155935728695133E+07,
2461442.500000000, A.D. 2027-Feb-06 00:00:00.0000, -5.071025613313056E+08, 1.990252011165217E+08, 2.160538541959111E+07,
2461449.500000000, A.D. 2027-Feb-13 00:00:00.0000, -5.095027890070226E+08, 1.907443577676541E+08, 2.164492627700029E+07,
2461456.500000000, A.D. 2027-Feb-20 00:00:00.0000, -5.117498674776264E+08, 1.824065042162768E+08, 2.167794262025273E+07,
2461463.500000000, A.D. 2027-Feb-27 00:00:00.0000, -5.138424822245137E+08, 1.740139170167336E+08, 2.170439818238642E+07,
2461470.500000000, A.D. 2027-Mar-06 00:00:00.0000, -5.157793342047601E+08, 1.655689003408859E+08, 2.172425753095206E+07,
2461477.500000000, A.D. 2027-Mar-13 00:00:00.0000, -5.175591392605996E+08, 1.570737864081685E+08, 2.173748598286142E+07,
2461484.500000000, A.D. 2027-Mar-20 00:00:00.0000, -5.191806280535192E+08, 1.485309364372095E+08, 2.174404960671160E+07,
2461491.500000000, A.D. 2027-Mar-27 00:00:00.0000, -5.206425463225944E+08, 1.399427415698009E+08, 2.174391524907947E+07,
2461498.500000000, A.D. 2027-Apr-03 00:00:00.0000, -5.219436552655209E+08, 1.313116237192028E+08, 2.173705056223209E+07,
2461505.500000000, A.D. 2027-Apr-10 00:00:00.0000, -5.230827319824919E+08, 1.226400363654561E+08, 2.172342402952648E+07,
2461512.500000000, A.D. 2027-Apr-17 00:00:00.0000, -5.240585699623862E+08, 1.139304652830299E+08, 2.170300498533983E+07,
2461519.500000000, A.D. 2027-Apr-24 00:00:00.0000, -5.248699795336542E+08, 1.051854291383507E+08, 2.167576361723984E+07,
2461526.500000000, A.D. 2027-May-01 00:00:00.0000, -5.255157879817849E+08, 9.640747998474412E+07, 2.164167092525594E+07,
2461533.500000000, A.D. 2027-May-08 00:00:00.0000, -5.259948390273063E+08, 8.759920440275788E+07, 2.160069867129154E+07,
2461540.500000000, A.D. 2027-May-15 00:00:00.0000, -5.263059931627118E+08, 7.876322623853154E+07, 2.155281953394438E+07,
2461547.500000000, A.D. 2027-May-22 00:00:00.0000, -5.264481304146004E+08, 6.990220834787819E+07, 2.149800740043337E+07,
2461554.500000000, A.D. 2027-May-29 00:00:00.0000, -5.264201521774503E+08, 6.101885187784653E+07, 2.143623736800748E+07,
2461561.500000000, A.D. 2027-Jun-05 00:00:00.0000, -5.262209812348865E+08, 5.211589621720982E+07, 2.136748562982288E+07,
2461568.500000000, A.D. 2027-Jun-12 00:00:00.0000, -5.258495619769634E+08, 4.319612004616844E+07, 2.129172946484295E+07,
2461575.500000000, A.D. 2027-Jun-19 00:00:00.0000, -5.253048611469049E+08, 3.426234254879172E+07, 2.120894728587769E+07,
2461582.500000000, A.D. 2027-Jun-26 00:00:00.0000, -5.245858688404847E+08, 2.531742452593242E+07, 2.111911869902807E+07,
2461589.500000000, A.D. 2027-Jul-03 00:00:00.0000, -5.236915996281464E+08, 1.636426941595737E+07, 2.102222456339985E+07,
2461596.500000000, A.D. 2027-Jul-10 00:00:00.0000, -5.226210937651321E+08, 7.405824230800303E+06, 2.091824704874413E+07,
2461603.500000000, A.D. 2027-Jul-17 00:00:00.0000, -5.213734184554741E+08, -1.554919632969215E+06, 2.080716968485130E+07,
2461610.500000000, A.D. 2027-Jul-24 00:00:00.0000, -5.199476690157620E+08, -1.051492577246129E+07, 2.068897738354914E+07,
2461617.500000000, A.D. 2027-Jul-31 00:00:00.0000, -5.183429695296288E+08, -1.947111211237943E+07, 2.056365641513360E+07,
2461624.500000000, A.D. 2027-Aug-07 00:00:00.0000, -5.165584731959877E+08, -2.842034904478070E+07, 2.043119445202435E+07,
2461631.500000000, A.D. 2027-Aug-14 00:00:00.0000, -5.145933646748745E+08, -3.735945663046481E+07, 2.029158087015856E+07,
2461638.500000000, A.D. 2027-Aug-21 00:00:00.0000, -5.124468638166224E+08, -4.628520422859701E+07, 2.014480697660169E+07,
2461645.500000000, A.D. 2027-Aug-28 00:00:00.0000, -5.101182273468943E+08, -5.519431135276610E+07, 1.999086594716581E+07,
2461652.500000000, A.D. 2027-Sep-04 00:00:00.0000, -5.076067496903697E+08, -6.408344725265443E+07, 1.982975278688629E+07,
2461659.500000000, A.D. 2027-Sep-11 00:00:00.0000, -5.049117643297852E+08, -7.294922988524650E+07, 1.966146438712645E+07,
2461666.500000000, A.D. 2027-Sep-18 00:00:00.0000, -5.020326455692160E+08, -8.178822492881878E+07, 1.948599961373929E+07,
2461673.500000000, A.D. 2027-Sep-25 00:00:00.0000, -4.989688104748785E+08, -9.059694492056321E+07, 1.930335939874687E+07,
2461680.500000000, A.D. 2027-Oct-02 00:00:00.0000, -4.957197209206491E+08, -9.937184849407037E+07, 1.911354683071516E+07,
2461687.500000000, A.D. 2027-Oct-09 00:00:00.0000, -4.922848857187290E+08, -1.081093397255055E+08, 1.891656724122618E+07,
2461694.500000000, A.D. 2027-Oct-16 00:00:00.0000, -4.886638627759452E+08, -1.168057676477492E+08, 1.871242827704289E+07,
2461701.500000000, A.D. 2027-Oct-23 00:00:00.0000, -4.848562610196773E+08, -1.254574259423292E+08, 1.850113993359355E+07,
2461708.500000000, A.D. 2027-Oct-30 00:00:00.0000, -4.808617417220837E+08, -1.340605522027876E+08, 1.828271456526002E+07,
2461715.500000000, A.D. 2027-Nov-06 00:00:00.0000, -4.766800203886110E+08, -1.426113256456808E+08, 1.805716707134611E+07,
2461722.500000000, A.D. 2027-Nov-13 00:00:00.0000, -4.723108711987486E+08, -1.511058653508316E+08, 1.782451527009758E+07,
2461729.500000000, A.D. 2027-Nov-20 00:00:00.0000, -4.677541311007065E+08, -1.595402312226821E+08, 1.758478001604110E+07,
2461736.500000000, A.D. 2027-Nov-27 00:00:00.0000, -4.630097019453688E+08, -1.679104247136928E+08, 1.733798515473384E+07,
2461743.500000000, A.D. 2027-Dec-04 00:00:00.0000, -4.580775526843113E+08, -1.762123884016762E+08, 1.708415757532689E+07,
2461750.500000000, A.D. 2027-Dec-11 00:00:00.0000, -4.529577221836174E+08, -1.844420053923150E+08, 1.682332733268274E+07,
2461757.500000000, A.D. 2027-Dec-18 00:00:00.0000, -4.476503223805677E+08, -1.925950988941268E+08, 1.655552778615666E+07,
2461764.500000000, A.D. 2027-Dec-25 00:00:00.0000, -4.421555416335669E+08, -2.006674319763262E+08, 1.628079574102770E+07,
2461771.500000000, A.D. 2028-Jan-01 00:00:00.0000, -4.364736482258300E+08, -2.086547075034282E+08, 1.599917159011297E+07,
$$EOE